[{"OBJECT_NAME":"KUIPER-00175","OBJECT_ID":"2025-301C","EPOCH":"2026-03-04T04:00:03.000096","MEAN_MOTION":15.30744351,"ECCENTRICITY":0.00021,"INCLINATION":51.8751,"RA_OF_ASC_NODE":91.5285,"ARG_OF_PERICENTER":35.2742,"MEAN_ANOMALY":308.9121,"EPHEMERIS_TYPE":0,"CLASSIFICATION_TYPE":"U","NORAD_CAT_ID":67135,"ELEMENT_SET_NO":999,"REV_AT_EPOCH":578,"BSTAR":0.00027588,"MEAN_MOTION_DOT":7.963e-5,"MEAN_MOTION_DDOT":0},{"OBJECT_NAME":"KUIPER-00179","OBJECT_ID":"2025-301D","EPOCH":"2026-03-04T04:00:03.000096","MEAN_MOTION":15.1804879,"ECCENTRICITY":0.000227,"INCLINATION":51.8822,"RA_OF_ASC_NODE":92.499,"ARG_OF_PERICENTER":59.9949,"MEAN_ANOMALY":173.7462,"EPHEMERIS_TYPE":0,"CLASSIFICATION_TYPE":"U","NORAD_CAT_ID":67136,"ELEMENT_SET_NO":999,"REV_AT_EPOCH":578,"BSTAR":-0.060584,"MEAN_MOTION_DOT":-0.0115188,"MEAN_MOTION_DDOT":0},{"OBJECT_NAME":"KUIPER-00181","OBJECT_ID":"2025-301E","EPOCH":"2026-03-04T04:00:03.000096","MEAN_MOTION":14.76398926,"ECCENTRICITY":0.0001948,"INCLINATION":51.9006,"RA_OF_ASC_NODE":101.3872,"ARG_OF_PERICENTER":101.3965,"MEAN_ANOMALY":258.1252,"EPHEMERIS_TYPE":0,"CLASSIFICATION_TYPE":"U","NORAD_CAT_ID":67137,"ELEMENT_SET_NO":999,"REV_AT_EPOCH":515,"BSTAR":-0.00084462,"MEAN_MOTION_DOT":-6.133e-5,"MEAN_MOTION_DDOT":0},{"OBJECT_NAME":"KUIPER-00183","OBJECT_ID":"2025-301F","EPOCH":"2026-03-04T04:00:03.000096","MEAN_MOTION":15.31221834,"ECCENTRICITY":0.0015033,"INCLINATION":51.8658,"RA_OF_ASC_NODE":92.5354,"ARG_OF_PERICENTER":32.7503,"MEAN_ANOMALY":122.3184,"EPHEMERIS_TYPE":0,"CLASSIFICATION_TYPE":"U","NORAD_CAT_ID":67138,"ELEMENT_SET_NO":999,"REV_AT_EPOCH":589,"BSTAR":0.00085232,"MEAN_MOTION_DOT":0.00025888,"MEAN_MOTION_DDOT":0},{"OBJECT_NAME":"KUIPER-00184","OBJECT_ID":"2025-301G","EPOCH":"2026-03-04T01:13:11.875296","MEAN_MOTION":15.37106882,"ECCENTRICITY":0.0012105,"INCLINATION":51.8621,"RA_OF_ASC_NODE":92.872,"ARG_OF_PERICENTER":31.4137,"MEAN_ANOMALY":328.757,"EPHEMERIS_TYPE":0,"CLASSIFICATION_TYPE":"U","NORAD_CAT_ID":67139,"ELEMENT_SET_NO":999,"REV_AT_EPOCH":1314,"BSTAR":0.00097593,"MEAN_MOTION_DOT":0.00035858,"MEAN_MOTION_DDOT":0},{"OBJECT_NAME":"KUIPER-00186","OBJECT_ID":"2025-301H","EPOCH":"2026-03-04T02:35:41.916192","MEAN_MOTION":14.79905755,"ECCENTRICITY":0.0001062,"INCLINATION":51.8994,"RA_OF_ASC_NODE":102.7899,"ARG_OF_PERICENTER":94.2635,"MEAN_ANOMALY":265.8448,"EPHEMERIS_TYPE":0,"CLASSIFICATION_TYPE":"U","NORAD_CAT_ID":67140,"ELEMENT_SET_NO":999,"REV_AT_EPOCH":1273,"BSTAR":0.00056337,"MEAN_MOTION_DOT":4.073e-5,"MEAN_MOTION_DDOT":0},{"OBJECT_NAME":"KUIPER-00187","OBJECT_ID":"2025-301J","EPOCH":"2026-03-03T13:33:44.891424","MEAN_MOTION":14.79973156,"ECCENTRICITY":7.12e-5,"INCLINATION":51.9024,"RA_OF_ASC_NODE":107.7059,"ARG_OF_PERICENTER":88.9988,"MEAN_ANOMALY":271.1056,"EPHEMERIS_TYPE":0,"CLASSIFICATION_TYPE":"U","NORAD_CAT_ID":67141,"ELEMENT_SET_NO":999,"REV_AT_EPOCH":1261,"BSTAR":0.00070052,"MEAN_MOTION_DOT":5.128e-5,"MEAN_MOTION_DDOT":0},{"OBJECT_NAME":"KUIPER-00188","OBJECT_ID":"2025-301K","EPOCH":"2026-03-04T02:07:51.440448","MEAN_MOTION":15.37821982,"ECCENTRICITY":0.0009655,"INCLINATION":51.8686,"RA_OF_ASC_NODE":92.4289,"ARG_OF_PERICENTER":25.7219,"MEAN_ANOMALY":334.4247,"EPHEMERIS_TYPE":0,"CLASSIFICATION_TYPE":"U","NORAD_CAT_ID":67142,"ELEMENT_SET_NO":999,"REV_AT_EPOCH":1287,"BSTAR":0.0015156,"MEAN_MOTION_DOT":0.00057336,"MEAN_MOTION_DDOT":0},{"OBJECT_NAME":"KUIPER-00191","OBJECT_ID":"2025-301L","EPOCH":"2026-03-04T04:00:03.000096","MEAN_MOTION":14.84180111,"ECCENTRICITY":0.0009852,"INCLINATION":51.8994,"RA_OF_ASC_NODE":97.688,"ARG_OF_PERICENTER":40.331,"MEAN_ANOMALY":359.5392,"EPHEMERIS_TYPE":0,"CLASSIFICATION_TYPE":"U","NORAD_CAT_ID":67143,"ELEMENT_SET_NO":999,"REV_AT_EPOCH":471,"BSTAR":-0.001868,"MEAN_MOTION_DOT":-0.00015979,"MEAN_MOTION_DDOT":0},{"OBJECT_NAME":"KUIPER-00196","OBJECT_ID":"2025-301M","EPOCH":"2026-03-04T01:05:16.215648","MEAN_MOTION":15.38574905,"ECCENTRICITY":0.0003265,"INCLINATION":51.8704,"RA_OF_ASC_NODE":92.167,"ARG_OF_PERICENTER":6.597,"MEAN_ANOMALY":353.506,"EPHEMERIS_TYPE":0,"CLASSIFICATION_TYPE":"U","NORAD_CAT_ID":67144,"ELEMENT_SET_NO":999,"REV_AT_EPOCH":1287,"BSTAR":0.0014552,"MEAN_MOTION_DOT":0.00056328,"MEAN_MOTION_DDOT":0},{"OBJECT_NAME":"KUIPER-00204","OBJECT_ID":"2025-301N","EPOCH":"2026-03-03T07:22:08.764032","MEAN_MOTION":15.25931357,"ECCENTRICITY":0.00028422,"INCLINATION":51.884,"RA_OF_ASC_NODE":100.5817,"ARG_OF_PERICENTER":325.7353,"MEAN_ANOMALY":34.3445,"EPHEMERIS_TYPE":0,"CLASSIFICATION_TYPE":"U","NORAD_CAT_ID":67145,"ELEMENT_SET_NO":999,"REV_AT_EPOCH":1280,"BSTAR":0.00085919361,"MEAN_MOTION_DOT":0.0002208,"MEAN_MOTION_DDOT":0},{"OBJECT_NAME":"KUIPER-00210","OBJECT_ID":"2025-301P","EPOCH":"2026-03-04T04:00:03.000096","MEAN_MOTION":14.85603153,"ECCENTRICITY":0.0009748,"INCLINATION":51.8984,"RA_OF_ASC_NODE":97.6963,"ARG_OF_PERICENTER":55.1841,"MEAN_ANOMALY":140.5573,"EPHEMERIS_TYPE":0,"CLASSIFICATION_TYPE":"U","NORAD_CAT_ID":67146,"ELEMENT_SET_NO":999,"REV_AT_EPOCH":579,"BSTAR":-0.0076915,"MEAN_MOTION_DOT":-0.00066866,"MEAN_MOTION_DDOT":0},{"OBJECT_NAME":"KUIPER-00221","OBJECT_ID":"2025-301Q","EPOCH":"2026-03-04T01:43:04.151712","MEAN_MOTION":14.79975679,"ECCENTRICITY":6.06e-5,"INCLINATION":51.9003,"RA_OF_ASC_NODE":105.4494,"ARG_OF_PERICENTER":97.2902,"MEAN_ANOMALY":262.8129,"EPHEMERIS_TYPE":0,"CLASSIFICATION_TYPE":"U","NORAD_CAT_ID":67147,"ELEMENT_SET_NO":999,"REV_AT_EPOCH":1269,"BSTAR":0.0007975,"MEAN_MOTION_DOT":5.87e-5,"MEAN_MOTION_DDOT":0},{"OBJECT_NAME":"KUIPER-00232","OBJECT_ID":"2025-301R","EPOCH":"2026-03-04T04:00:03.000096","MEAN_MOTION":15.17423683,"ECCENTRICITY":0.0003166,"INCLINATION":51.8805,"RA_OF_ASC_NODE":92.3494,"ARG_OF_PERICENTER":134.252,"MEAN_ANOMALY":118.4878,"EPHEMERIS_TYPE":0,"CLASSIFICATION_TYPE":"U","NORAD_CAT_ID":67148,"ELEMENT_SET_NO":999,"REV_AT_EPOCH":511,"BSTAR":-0.04004,"MEAN_MOTION_DOT":-0.00753666,"MEAN_MOTION_DDOT":0},{"OBJECT_NAME":"KUIPER-00241","OBJECT_ID":"2025-301S","EPOCH":"2026-03-04T04:00:03.000096","MEAN_MOTION":14.8012826,"ECCENTRICITY":0.0001661,"INCLINATION":51.9012,"RA_OF_ASC_NODE":100.0352,"ARG_OF_PERICENTER":88.0085,"MEAN_ANOMALY":30.2302,"EPHEMERIS_TYPE":0,"CLASSIFICATION_TYPE":"U","NORAD_CAT_ID":67149,"ELEMENT_SET_NO":999,"REV_AT_EPOCH":551,"BSTAR":-0.0025342,"MEAN_MOTION_DOT":-0.00019575,"MEAN_MOTION_DDOT":0},{"OBJECT_NAME":"KUIPER-00245","OBJECT_ID":"2025-301T","EPOCH":"2026-03-04T03:16:22.572768","MEAN_MOTION":14.79956694,"ECCENTRICITY":4.34e-5,"INCLINATION":51.9038,"RA_OF_ASC_NODE":107.6845,"ARG_OF_PERICENTER":66.8378,"MEAN_ANOMALY":293.263,"EPHEMERIS_TYPE":0,"CLASSIFICATION_TYPE":"U","NORAD_CAT_ID":67150,"ELEMENT_SET_NO":999,"REV_AT_EPOCH":1266,"BSTAR":0.00010441,"MEAN_MOTION_DOT":5.75e-6,"MEAN_MOTION_DDOT":0},{"OBJECT_NAME":"KUIPER-00246","OBJECT_ID":"2025-301U","EPOCH":"2026-03-04T04:00:03.000096","MEAN_MOTION":15.08756709,"ECCENTRICITY":0.0004893,"INCLINATION":51.8867,"RA_OF_ASC_NODE":93.6884,"ARG_OF_PERICENTER":53.543,"MEAN_ANOMALY":319.5871,"EPHEMERIS_TYPE":0,"CLASSIFICATION_TYPE":"U","NORAD_CAT_ID":67151,"ELEMENT_SET_NO":999,"REV_AT_EPOCH":583,"BSTAR":-0.068488,"MEAN_MOTION_DOT":-0.01012388,"MEAN_MOTION_DDOT":0}]
