KUIPER-00175            
1 67135U 25301C   26063.16670139  .00007963  00000+0  27588-3 0  9990
2 67135  51.8751  91.5285 0002100  35.2742 308.9121 15.30744351  5784
KUIPER-00179            
1 67136U 25301D   26063.16670139 -.01151880  00000+0 -60584-1 0  9993
2 67136  51.8822  92.4990 0002270  59.9949 173.7462 15.18048790  5783
KUIPER-00181            
1 67137U 25301E   26063.16670139 -.00006133  00000+0 -84462-3 0  9996
2 67137  51.9006 101.3872 0001948 101.3965 258.1252 14.76398926  5157
KUIPER-00183            
1 67138U 25301F   26063.16670139  .00025888  00000+0  85232-3 0  9999
2 67138  51.8658  92.5354 0015033  32.7503 122.3184 15.31221834  5893
KUIPER-00184            
1 67139U 25301G   26063.05083189  .00035858  00000+0  97593-3 0  9992
2 67139  51.8621  92.8720 0012105  31.4137 328.7570 15.37106882 13149
KUIPER-00186            
1 67140U 25301H   26063.10812403  .00004073  00000+0  56337-3 0  9995
2 67140  51.8994 102.7899 0001062  94.2635 265.8448 14.79905755 12732
KUIPER-00187            
1 67141U 25301J   26062.56510291  .00005128  00000+0  70052-3 0  9997
2 67141  51.9024 107.7059 0000712  88.9988 271.1056 14.79973156 12615
KUIPER-00188            
1 67142U 25301K   26063.08878982  .00057336  00000+0  15156-2 0  9991
2 67142  51.8686  92.4289 0009655  25.7219 334.4247 15.37821982 12872
KUIPER-00191            
1 67143U 25301L   26063.16670139 -.00015979  00000+0 -18680-2 0  9999
2 67143  51.8994  97.6880 0009852  40.3310 359.5392 14.84180111  4719
KUIPER-00196            
1 67144U 25301M   26063.04532657  .00056328  00000+0  14552-2 0  9994
2 67144  51.8704  92.1670 0003265   6.5970 353.5060 15.38574905 12874
KUIPER-00204            
1 67145U 25301N   26062.30704588  .00022080  00000+0  85919-3 0  9991
2 67145  51.8840 100.5817 0002842 325.7353  34.3445 15.25931357 12802
KUIPER-00210            
1 67146U 25301P   26063.16670139 -.00066866  00000+0 -76915-2 0  9998
2 67146  51.8984  97.6963 0009748  55.1841 140.5573 14.85603153  5795
KUIPER-00221            
1 67147U 25301Q   26063.07157583  .00005870  00000+0  79750-3 0  9999
2 67147  51.9003 105.4494 0000606  97.2902 262.8129 14.79975679 12695
KUIPER-00232            
1 67148U 25301R   26063.16670139 -.00753666  00000+0 -40040-1 0  9990
2 67148  51.8805  92.3494 0003166 134.2520 118.4878 15.17423683  5113
KUIPER-00241            
1 67149U 25301S   26063.16670139 -.00019575  00000+0 -25342-2 0  9994
2 67149  51.9012 100.0352 0001661  88.0085  30.2302 14.80128260  5514
KUIPER-00245            
1 67150U 25301T   26063.13637237  .00000575  00000+0  10441-3 0  9998
2 67150  51.9038 107.6845 0000434  66.8378 293.2630 14.79956694 12667
KUIPER-00246            
1 67151U 25301U   26063.16670139 -.01012388  00000+0 -68488-1 0  9990
2 67151  51.8867  93.6884 0004893  53.5430 319.5871 15.08756709  5837
